304P/Ory,e,2.6067,58.9299,335.2339,3.150550,0.1762481,0.60054800,55.7958,06/25.0/2021,2000,g 16.5,4.0
# From MPC101100
305P/Skiff,e,11.6507,240.1148,147.2918,4.643761,0.0984916,0.69332752,237.7192,06/25.0/2021,2000,g 18.0,4.0
# From MPC 92278
306P/LINEAR,e,8.3113,341.3738,0.8425,3.123101,0.1785768,0.59331723,92.6919,06/25.0/2021,2000,g 19.0,4.0
# From MPC 92278
307P/LINEAR,e,4.4344,158.1548,222.1299,5.792660,0.0706947,0.67476539,168.0850,06/25.0/2021,2000,g 15.0,4.0
# From MPC109148
308P/Lagerkvist-Carsenty,e,4.8510,63.0805,333.5902,6.603827,0.0580778,0.36348617,130.1828,06/25.0/2021,2000,g 13.0,2.0
# From MPC 94284
309P/LINEAR,e,17.0234,10.1422,49.9525,4.371849,0.1078217,0.61769885,251.2436,06/25.0/2021,2000,g 15.0,4.0
# From MPC 98566
310P/Hill,e,13.1278,8.9244,31.8195,4.178599,0.1153873,0.42187471,261.7260,06/25.0/2021,2000,g 13.5,4.0
# From MPEC 2021-BE3
311P/PANSTARRS,e,4.9695,279.2256,144.5787,2.188845,0.3043558,0.11552390,79.3059,06/25.0/2021,2000,g 17.0,4.0
# From MPEC 2021-BE3
312P/NEAT,e,19.7684,144.6691,207.5517,3.466671,0.1526986,0.42784955,41.6808,06/25.0/2021,2000,g 16.0,4.0
# From MPEC 2021-BE3
313P/Gibbs,e,10.9827,105.9736,254.6971,3.162599,0.1752419,0.23500721,76.3182,06/25.0/2021,2000,g 15.0,4.0
# From MPC105243
314P/Montani,e,3.9803,267.6134,214.1212,7.268831,0.0502930,0.41601919,86.5624,06/25.0/2021,2000,g  9.5,4.0
# From MPC115888
315P/LONEOS,e,17.7586,68.9158,65.7049,4.939356,0.0897839,0.52138958,149.9023,06/25.0/2021,2000,g 11.0,4.0
# From MPC 92279
316P/LONEOS-Christensen,e,9.8439,246.6241,193.2603,4.362458,0.1081701,0.15723416,225.5275,06/25.0/2021,2000,g 13.5,4.0
# From MPEC 2020-C98
317P/WISE,e,11.9498,275.5069,334.8860,2.964484,0.1930991,0.57049406,52.4918,06/25.0/2021,2000,g 17.5,4.0
# From MPC102103
318P/McNaught-Hartley,e,17.8782,35.5834,313.1820,7.498510,0.0480000,0.67524293,99.3684,06/25.0/2021,2000,g  8.5,6.0
# From MPC 97499
319P/Catalina-McNaught,e,15.0948,111.3743,203.6582,3.567199,0.1462895,0.66662092,319.1230,06/25.0/2021,2000,g 15.0,4.0
# From MPC 96281
320P/McNaught,e,4.9089,295.9290,0.7729,3.093405,0.1811544,0.68569639,28.7789,06/25.0/2021,2000,g 20.5,4.0
# From MPC105243
321P/SOHO,e,20.0795,165.0226,172.7413,2.423419,0.2612530,0.98110669,0.0000,01/17.3248/2020,2000,g 20.0,4.0
# From MPC102103
322P/SOHO,e,11.4654,351.5085,56.8913,2.507982,0.2481519,0.97982252,0.0000,08/31.4309/2019,2000,g 19.0,4.0
# From MPEC 2016-Y36
323P/SOHO,e,5.3386,324.3752,353.0545,2.582414,0.2375009,0.98484257,0.0000,01/17.7639/2021,2000,g 20.0,4.0
# From MPC108598
324P/La Sagra,e,21.4032,270.6114,57.6504,3.096918,0.1808463,0.15445771,9.0742,06/25.0/2021,2000,g 13.0,4.0
# From MPC114609
325P/Yang-Gao,e,16.6945,257.5683,343.6911,3.523770,0.1490022,0.59352436,318.7030,06/25.0/2021,2000,g 14.0,4.0
# From MPC103849
326P/Hill,e,2.4708,99.8114,278.5937,4.063481,0.1203253,0.31773844,249.4505,06/25.0/2021,2000,g 13.5,4.0
# From MPC 97499
327P/Van Ness,e,36.2503,173.9825,185.0360,3.562197,0.1465977,0.56304639,296.3079,06/25.0/2021,2000,g 16.0,4.0
# From MPC109148
328P/LONEOS-Tucker,e,17.6726,341.6330,30.4880,4.194512,0.1147313,0.55215550,230.4528,06/25.0/2021,2000,g 14.5,4.0
# From MPC101101
329P/LINEAR-Catalina,e,21.6729,87.6750,343.5309,5.191369,0.0833261,0.67717997,169.5018,06/25.0/2021,2000,g 13.5,4.0
# From MPC105243
330P/Catalina,e,15.6948,293.0950,188.9558,6.628908,0.0577486,0.54832271,101.8595,06/25.0/2021,2000,g 12.0,4.0
# From MPEC 2021-BE3
331P/Gibbs,e,9.7383,216.7733,183.9378,3.004336,0.1892698,0.04095451,50.6198,06/25.0/2021,2000,g 12.0,4.0
# From MPEC 2016-K18
332P/Ikeya-Murakami,e,9.3799,3.7867,152.3418,3.089321,0.1815137,0.48949007,350.1221,06/25.0/2021,2000,g 18.0,4.0
# From MPEC 2016-EI8
332P-B/Ikeya-Murakami,e,9.3805,3.8028,152.3711,3.082329,0.1821317,0.48970701,359.9699,03/17.0/2016,2000,g 19.0,4.0
# From MPEC 2016-K18
332P-C/Ikeya-Murakami,e,9.3790,3.7871,152.3331,3.089287,0.1815167,0.48949551,350.1361,06/25.0/2021,2000,g 16.5,4.0
# From MPEC 2016-ED0
332P-D/Ikeya-Murakami,e,9.3761,3.7923,152.4393,3.081138,0.1822373,0.48977814,359.9486,03/17.0/2016,2000,g 19.0,4.0
# From MPEC 2016-ED0
332P-E/Ikeya-Murakami,e,9.3774,3.8228,152.2825,3.079877,0.1823493,0.48922008,359.9889,03/17.0/2016,2000,g 21.0,4.0
# From MPEC 2016-ED0
332P-F/Ikeya-Murakami,e,9.5293,3.4757,152.8203,3.163214,0.1751908,0.49918860,359.8501,03/17.0/2016,2000,g 21.0,4.0
# From MPEC 2016-ED0
332P-G/Ikeya-Murakami,e,9.2523,3.6955,154.4000,3.050519,0.1849880,0.49200362,359.9006,03/19.0/2016,2000,g 19.0,4.0
# From MPC100285
332P-H/Ikeya-Murakami,e,9.3795,3.7869,152.3338,3.089472,0.1815004,0.48953071,350.0720,06/25.0/2021,2000,g 19.0,4.0
# From MPEC 2016-ED0
332P-I/Ikeya-Murakami,e,9.3791,3.8048,152.3297,3.081767,0.1821815,0.48955490,359.9360,03/17.0/2016,2000,g 20.5,2.0
# From MPEC 2016-EI8
332P-J/Ikeya-Murakami,e,9.4296,3.6729,152.7712,3.115165,0.1792596,0.49429435,359.8613,03/17.0/2016,2000,g 20.5,2.0
# From MPEC 2020-L06
333P/LINEAR,e,131.9803,115.6256,26.0049,4.219187,0.1137263,0.73678702,217.4628,06/25.0/2021,2000,g 15.0,4.0
# From MPC115888
334P/NEAT,e,20.4308,90.6726,90.0798,6.838797,0.0551105,0.35155024,81.5224,06/25.0/2021,2000,g 10.5,4.0
# From MPC100285
335P/Gibbs,e,7.2935,330.8483,162.2740,3.577785,0.1456407,0.54587697,299.8449,06/25.0/2021,2000,g 17.0,4.0
# From MPC105244
336P/McNaught,e,17.8335,298.2320,308.7595,5.032603,0.0873002,0.44502384,139.9981,06/25.0/2021,2000,g 13.5,4.0
# From MPC115888
337P/WISE,e,15.3719,106.0687,161.0035,3.287072,0.1653828,0.49677623,298.6272,06/25.0/2021,2000,g 17.0,4.0
# From MPC104796
338P/McNaught,e,25.3802,9.7909,4.4042,3.896950,0.1281200,0.41150970,214.5803,06/25.0/2021,2000,g 12.0,4.0
# From MPC101101
339P/Gibbs,e,5.7338,172.7314,27.5135,3.696784,0.1386653,0.63555007,249.4692,06/25.0/2021,2000,g 17.0,4.0
# From MPC102957
340P/Boattini,e,2.0792,291.7193,35.8549,4.251122,0.1124472,0.28079195,188.5949,06/25.0/2021,2000,g 13.0,4.0
# From MPEC 2021-BE3
341P/Gibbs,e,3.7958,29.9784,312.1606,4.293258,0.1107959,0.41551246,205.2460,06/25.0/2021,2000,g 12.5,4.0
# From MPC101101
342P/SOHO,e,11.6658,27.7464,73.2305,3.042951,0.1856785,0.98277897,0.0000,10/19.2983/2021,2000,g  9.0,4.0
# From MPC109148
343P/NEAT-LONEOS,e,5.5847,257.2005,137.3790,5.460136,0.0772501,0.58428678,124.2548,06/25.0/2021,2000,g 14.0,4.0
# From MPC109148
344P/Read,e,3.4910,273.1709,140.3806,4.865359,0.0918400,0.42201325,155.8614,06/25.0/2021,2000,g 13.0,4.0
# From MPC109148
345P/LINEAR,e,2.7272,154.5064,196.4032,4.038520,0.1214425,0.22107454,218.9374,06/25.0/2021,2000,g 12.0,4.0
# From MPC110086
346P/Catalina,e,22.1873,102.4653,335.9738,4.475604,0.1040942,0.50240956,165.7820,06/25.0/2021,2000,g 14.0,4.0
# From MPC108599
347P/PANSTARRS,e,11.7498,261.0298,98.3400,3.605982,0.1439358,0.38578954,251.3173,06/25.0/2021,2000,g 15.0,4.0
# From MPEC 2020-SI8
348P/PANSTARRS,e,17.7405,312.9414,135.6395,3.150149,0.1762818,0.30668716,319.0209,06/25.0/2021,2000,g 14.0,4.0
# From MPC112394
349P/Lemmon,e,5.4909,331.7435,256.0404,3.573338,0.1459126,0.29894449,204.2370,06/25.0/2021,2000,g 14.0,4.0
# From MPC111775
350P/McNaught,e,7.3578,65.3315,140.1238,4.090969,0.1191145,0.09163331,153.4665,06/25.0/2021,2000,g 14.0,4.0
# From MPC105244
351P/Wiegert-PANSTARRS,e,12.7875,283.4481,352.6684,4.437630,0.1054332,0.29582559,215.6005,06/25.0/2021,2000,g 12.5,4.0
# From MPC110086
352P/Skiff,e,21.0092,28.0596,309.2016,6.638143,0.0576281,0.61823273,84.3327,06/25.0/2021,2000,g 11.5,4.0
# From MPEC 2020-AA5
353P/McNaught,e,28.4237,121.5609,230.3871,4.171209,0.1156941,0.47016610,148.2073,06/25.0/2021,2000,g 14.5,4.0
# From MPC105545
354P/LINEAR,e,5.2556,320.1290,132.9470,2.289521,0.2845032,0.12567814,120.5732,06/25.0/2021,2000,g 15.5,4.0
# From MPEC 2020-AA5
355P/LINEAR-NEAT,e,11.0399,51.4319,336.2539,3.471703,0.1523667,0.50723237,205.8249,06/25.0/2021,2000,g 15.5,2.0
# From MPEC 2021-F20
356P/WISE,e,9.6373,160.7947,225.9905,4.159533,0.1161815,0.35506638,149.3532,06/25.0/2021,2000,g 14.0,4.0
# From MPC114609
357P/Hill,e,6.3118,44.5688,1.3945,4.460446,0.1046253,0.43484926,117.4886,06/25.0/2021,2000,g 15.5,4.0
# From MPEC 2020-HN5
358P/PANSTARRS,e,11.0580,85.7070,299.7306,3.147584,0.1764973,0.23846731,206.5452,06/25.0/2021,2000,g 18.0,4.0
# From MPC110086
359P/LONEOS,e,10.2672,149.7559,200.1621,4.639633,0.0986231,0.32412061,138.3955,06/25.0/2021,2000,g 13.5,4.0
# From MPC108599
360P/WISE,e,24.1056,2.1901,354.1297,3.702141,0.1383645,0.49894117,194.4517,06/25.0/2021,2000,g 19.5,6.0
# From MPC114609
361P/Spacewatch,e,13.8930,203.2503,219.0509,4.938538,0.0898062,0.43809050,97.7782,06/25.0/2021,2000,g 12.0,4.0
# From MPEC 2017-V13
362P/,e,15.5565,192.5668,53.7010,3.969015,0.1246465,0.27941534,220.2251,06/25.0/2021,2000,g 12.9,2.0
# From MPC114609
363P/Lemmon,e,5.4020,146.9131,341.2796,3.550508,0.1473222,0.52566177,178.1657,06/25.0/2021,2000,g 17.5,4.0
# From MPEC 2021-F20
364P/PANSTARRS,e,12.1397,46.1889,212.0080,2.879296,0.2017319,0.72218440,221.2412,06/25.0/2021,2000,g 17.0,2.0
# From MPC111775
365P/PANSTARRS,e,9.8253,87.2201,66.3721,3.175031,0.1742136,0.57744966,213.9791,06/25.0/2021,2000,g 17.0,4.0
# From MPC114610
366P/Spacewatch,e,8.8588,70.7589,153.1380,3.495774,0.1507958,0.34825113,161.4115,06/25.0/2021,2000,g 15.0,4.0
# From MPC112395
367P/Catalina,e,8.4623,58.7209,172.9055,3.505771,0.1501512,0.28021804,165.1973,06/25.0/2021,2000,g 17.5,2.0
# From MPC114610
368P/NEAT,e,15.4814,257.9397,118.7948,5.527108,0.0758503,0.62643646,76.9367,06/25.0/2021,2000,g 14.0,4.0
# From MPC114610
369P/Hill,e,10.3145,47.2948,13.1781,4.384228,0.1073654,0.55446835,105.6283,06/25.0/2021,2000,g 15.0,4.0
# From MPEC 2021-F20
370P/NEAT,e,19.4057,55.1148,356.6824,6.434863,0.0603803,0.61463299,67.1067,06/25.0/2021,2000,g 13.0,4.0
# From MPC114610
371P/LINEAR-Skiff,e,17.3777,67.2983,308.4652,4.181052,0.1152858,0.47668243,114.5935,06/25.0/2021,2000,g 16.0,4.0
# From MPEC 2020-K19
372P/McNaught,e,9.5101,325.8158,27.3163,4.504613,0.1030903,0.15272353,100.7084,06/25.0/2021,2000,g 13.5,4.0
# From MPEC 2021-F20
